CCSDS_OMM_VERS = 2.0
CREATION_DATE  = 
ORIGINATOR     = 

OBJECT_NAME    = STARLINK-37065
OBJECT_ID      = 2026-042Q
CENTER_NAME    = EARTH
REF_FRAME      = TEME
TIME_SYSTEM    = UTC
MEAN_ELEMENT_THEORY = SGP/SGP4

EPOCH          = 2026-03-23T13:06:59.373792
MEAN_MOTION    = 15.75213081
ECCENTRICITY   = .000072
INCLINATION    = 53.1582
RA_OF_ASC_NODE = 125.3921
ARG_OF_PERICENTER = 125.8735
MEAN_ANOMALY   = 234.2352

EPHEMERIS_TYPE = 0
CLASSIFICATION_TYPE = U
NORAD_CAT_ID   = 68083
ELEMENT_SET_NO = 999
REV_AT_EPOCH   = 427
BSTAR          = .76851E-3
MEAN_MOTION_DOT = .118695E-2
MEAN_MOTION_DDOT = 0

CCSDS_OMM_VERS = 2.0
CREATION_DATE  = 
ORIGINATOR     = 

OBJECT_NAME    = STARLINK-37037
OBJECT_ID      = 2026-042R
CENTER_NAME    = EARTH
REF_FRAME      = TEME
TIME_SYSTEM    = UTC
MEAN_ELEMENT_THEORY = SGP/SGP4

EPOCH          = 2026-03-23T12:43:20.902656
MEAN_MOTION    = 15.80297389
ECCENTRICITY   = .0001304
INCLINATION    = 53.1579
RA_OF_ASC_NODE = 125.2834
ARG_OF_PERICENTER = 47.1113
MEAN_ANOMALY   = 313.0019

EPHEMERIS_TYPE = 0
CLASSIFICATION_TYPE = U
NORAD_CAT_ID   = 68084
ELEMENT_SET_NO = 999
REV_AT_EPOCH   = 427
BSTAR          = -.30862E-2
MEAN_MOTION_DOT = -.557151E-2
MEAN_MOTION_DDOT = 0

CCSDS_OMM_VERS = 2.0
CREATION_DATE  = 
ORIGINATOR     = 

OBJECT_NAME    = STARLINK-37068
OBJECT_ID      = 2026-042S
CENTER_NAME    = EARTH
REF_FRAME      = TEME
TIME_SYSTEM    = UTC
MEAN_ELEMENT_THEORY = SGP/SGP4

EPOCH          = 2026-03-23T12:42:10.631808
MEAN_MOTION    = 15.80796049
ECCENTRICITY   = .0001079
INCLINATION    = 53.1577
RA_OF_ASC_NODE = 125.2773
ARG_OF_PERICENTER = 61.6164
MEAN_ANOMALY   = 298.4968

EPHEMERIS_TYPE = 0
CLASSIFICATION_TYPE = U
NORAD_CAT_ID   = 68085
ELEMENT_SET_NO = 999
REV_AT_EPOCH   = 427
BSTAR          = -.15206E-3
MEAN_MOTION_DOT = -.30497E-3
MEAN_MOTION_DDOT = 0

CCSDS_OMM_VERS = 2.0
CREATION_DATE  = 
ORIGINATOR     = 

OBJECT_NAME    = STARLINK-37067
OBJECT_ID      = 2026-042T
CENTER_NAME    = EARTH
REF_FRAME      = TEME
TIME_SYSTEM    = UTC
MEAN_ELEMENT_THEORY = SGP/SGP4

EPOCH          = 2026-03-23T12:41:05.971776
MEAN_MOTION    = 15.80823347
ECCENTRICITY   = .0001697
INCLINATION    = 53.1576
RA_OF_ASC_NODE = 125.2724
ARG_OF_PERICENTER = 58.5022
MEAN_ANOMALY   = 301.6166

EPHEMERIS_TYPE = 0
CLASSIFICATION_TYPE = U
NORAD_CAT_ID   = 68086
ELEMENT_SET_NO = 999
REV_AT_EPOCH   = 427
BSTAR          = .28474E-3
MEAN_MOTION_DOT = .55736E-3
MEAN_MOTION_DDOT = 0

CCSDS_OMM_VERS = 2.0
CREATION_DATE  = 
ORIGINATOR     = 

OBJECT_NAME    = STARLINK-37062
OBJECT_ID      = 2026-042U
CENTER_NAME    = EARTH
REF_FRAME      = TEME
TIME_SYSTEM    = UTC
MEAN_ELEMENT_THEORY = SGP/SGP4

EPOCH          = 2026-03-23T12:40:01.392960
MEAN_MOTION    = 15.80871663
ECCENTRICITY   = .0001604
INCLINATION    = 53.1577
RA_OF_ASC_NODE = 125.2678
ARG_OF_PERICENTER = 71.7887
MEAN_ANOMALY   = 288.3310

EPHEMERIS_TYPE = 0
CLASSIFICATION_TYPE = U
NORAD_CAT_ID   = 68087
ELEMENT_SET_NO = 999
REV_AT_EPOCH   = 427
BSTAR          = .60777E-3
MEAN_MOTION_DOT = .120942E-2
MEAN_MOTION_DDOT = 0

CCSDS_OMM_VERS = 2.0
CREATION_DATE  = 
ORIGINATOR     = 

OBJECT_NAME    = STARLINK-37059
OBJECT_ID      = 2026-042V
CENTER_NAME    = EARTH
REF_FRAME      = TEME
TIME_SYSTEM    = UTC
MEAN_ELEMENT_THEORY = SGP/SGP4

EPOCH          = 2026-03-23T12:38:56.045184
MEAN_MOTION    = 15.80819018
ECCENTRICITY   = .0000942
INCLINATION    = 53.1573
RA_OF_ASC_NODE = 125.2628
ARG_OF_PERICENTER = 66.5688
MEAN_ANOMALY   = 293.5433

EPHEMERIS_TYPE = 0
CLASSIFICATION_TYPE = U
NORAD_CAT_ID   = 68088
ELEMENT_SET_NO = 999
REV_AT_EPOCH   = 427
BSTAR          = .72564E-4
MEAN_MOTION_DOT = .13611E-3
MEAN_MOTION_DDOT = 0

CCSDS_OMM_VERS = 2.0
CREATION_DATE  = 
ORIGINATOR     = 

OBJECT_NAME    = STARLINK-37004
OBJECT_ID      = 2026-042W
CENTER_NAME    = EARTH
REF_FRAME      = TEME
TIME_SYSTEM    = UTC
MEAN_ELEMENT_THEORY = SGP/SGP4

EPOCH          = 2026-03-23T12:37:51.271968
MEAN_MOTION    = 15.80821674
ECCENTRICITY   = .0001302
INCLINATION    = 53.1573
RA_OF_ASC_NODE = 125.2577
ARG_OF_PERICENTER = 65.8321
MEAN_ANOMALY   = 294.2837

EPHEMERIS_TYPE = 0
CLASSIFICATION_TYPE = U
NORAD_CAT_ID   = 68089
ELEMENT_SET_NO = 999
REV_AT_EPOCH   = 427
BSTAR          = .13413E-3
MEAN_MOTION_DOT = .25791E-3
MEAN_MOTION_DDOT = 0

CCSDS_OMM_VERS = 2.0
CREATION_DATE  = 
ORIGINATOR     = 

OBJECT_NAME    = STARLINK-36320
OBJECT_ID      = 2026-042X
CENTER_NAME    = EARTH
REF_FRAME      = TEME
TIME_SYSTEM    = UTC
MEAN_ELEMENT_THEORY = SGP/SGP4

EPOCH          = 2026-03-23T10:00:03.000096
MEAN_MOTION    = 15.75113229
ECCENTRICITY   = .0001368
INCLINATION    = 53.1585
RA_OF_ASC_NODE = 125.9317
ARG_OF_PERICENTER = 76.5383
MEAN_ANOMALY   = 318.5486

EPHEMERIS_TYPE = 0
CLASSIFICATION_TYPE = U
NORAD_CAT_ID   = 68090
ELEMENT_SET_NO = 999
REV_AT_EPOCH   = 424
BSTAR          = .7065E-3
MEAN_MOTION_DOT = .108457E-2
MEAN_MOTION_DDOT = 0

CCSDS_OMM_VERS = 2.0
CREATION_DATE  = 
ORIGINATOR     = 

OBJECT_NAME    = STARLINK-36324
OBJECT_ID      = 2026-042Y
CENTER_NAME    = EARTH
REF_FRAME      = TEME
TIME_SYSTEM    = UTC
MEAN_ELEMENT_THEORY = SGP/SGP4

EPOCH          = 2026-03-23T00:00:02.000160
MEAN_MOTION    = 15.75320491
ECCENTRICITY   = .00014298
INCLINATION    = 53.1580
RA_OF_ASC_NODE = 128.0578
ARG_OF_PERICENTER = 144.4796
MEAN_ANOMALY   = 18.6458

EPHEMERIS_TYPE = 0
CLASSIFICATION_TYPE = U
NORAD_CAT_ID   = 68091
ELEMENT_SET_NO = 999
REV_AT_EPOCH   = 418
BSTAR          = -.80645011E-3
MEAN_MOTION_DOT = -.12292E-2
MEAN_MOTION_DDOT = 0

CCSDS_OMM_VERS = 2.0
CREATION_DATE  = 
ORIGINATOR     = 

OBJECT_NAME    = STARLINK-36896
OBJECT_ID      = 2026-042Z
CENTER_NAME    = EARTH
REF_FRAME      = TEME
TIME_SYSTEM    = UTC
MEAN_ELEMENT_THEORY = SGP/SGP4

EPOCH          = 2026-03-23T10:00:03.000096
MEAN_MOTION    = 15.75101175
ECCENTRICITY   = .0001685
INCLINATION    = 53.1591
RA_OF_ASC_NODE = 125.8789
ARG_OF_PERICENTER = 83.6299
MEAN_ANOMALY   = 337.2276

EPHEMERIS_TYPE = 0
CLASSIFICATION_TYPE = U
NORAD_CAT_ID   = 68092
ELEMENT_SET_NO = 999
REV_AT_EPOCH   = 425
BSTAR          = .65244E-3
MEAN_MOTION_DOT = .99957E-3
MEAN_MOTION_DDOT = 0

CCSDS_OMM_VERS = 2.0
CREATION_DATE  = 
ORIGINATOR     = 

OBJECT_NAME    = STARLINK-36251
OBJECT_ID      = 2026-042AA
CENTER_NAME    = EARTH
REF_FRAME      = TEME
TIME_SYSTEM    = UTC
MEAN_ELEMENT_THEORY = SGP/SGP4

EPOCH          = 2026-03-23T12:32:27.262464
MEAN_MOTION    = 15.80828753
ECCENTRICITY   = .0001192
INCLINATION    = 53.1575
RA_OF_ASC_NODE = 125.2319
ARG_OF_PERICENTER = 84.9661
MEAN_ANOMALY   = 275.1497

EPHEMERIS_TYPE = 0
CLASSIFICATION_TYPE = U
NORAD_CAT_ID   = 68093
ELEMENT_SET_NO = 999
REV_AT_EPOCH   = 426
BSTAR          = .43758E-4
MEAN_MOTION_DOT = .7928E-4
MEAN_MOTION_DDOT = 0

CCSDS_OMM_VERS = 2.0
CREATION_DATE  = 
ORIGINATOR     = 

OBJECT_NAME    = STARLINK-36787
OBJECT_ID      = 2026-042AB
CENTER_NAME    = EARTH
REF_FRAME      = TEME
TIME_SYSTEM    = UTC
MEAN_ELEMENT_THEORY = SGP/SGP4

EPOCH          = 2026-03-23T11:23:01.190976
MEAN_MOTION    = 15.75211179
ECCENTRICITY   = .0001068
INCLINATION    = 53.1586
RA_OF_ASC_NODE = 125.6475
ARG_OF_PERICENTER = 64.4892
MEAN_ANOMALY   = 295.6238

EPHEMERIS_TYPE = 0
CLASSIFICATION_TYPE = U
NORAD_CAT_ID   = 68094
ELEMENT_SET_NO = 999
REV_AT_EPOCH   = 425
BSTAR          = .2842E-3
MEAN_MOTION_DOT = .43094E-3
MEAN_MOTION_DDOT = 0

