STARLINK-37065          
1 68083U 26042Q   26082.54652053  .00118695  00000+0  76851-3 0  9996
2 68083  53.1582 125.3921 0000720 125.8735 234.2352 15.75213081  4271
STARLINK-37037          
1 68084U 26042R   26082.53010304 -.00557151  00000+0 -30862-2 0  9990
2 68084  53.1579 125.2834 0001304  47.1113 313.0019 15.80297389  4270
STARLINK-37068          
1 68085U 26042S   26082.52928972 -.00030497  00000+0 -15206-3 0  9994
2 68085  53.1577 125.2773 0001079  61.6164 298.4968 15.80796049  4273
STARLINK-37067          
1 68086U 26042T   26082.52854134  .00055736  00000+0  28474-3 0  9995
2 68086  53.1576 125.2724 0001697  58.5022 301.6166 15.80823347  4272
STARLINK-37062          
1 68087U 26042U   26082.52779390  .00120942  00000+0  60777-3 0  9990
2 68087  53.1577 125.2678 0001604  71.7887 288.3310 15.80871663  4272
STARLINK-37059          
1 68088U 26042V   26082.52703756  .00013611  00000+0  72564-4 0  9996
2 68088  53.1573 125.2628 0000942  66.5688 293.5433 15.80819018  4279
STARLINK-37004          
1 68089U 26042W   26082.52628787  .00025791  00000+0  13413-3 0  9996
2 68089  53.1573 125.2577 0001302  65.8321 294.2837 15.80821674  4277
STARLINK-36320          
1 68090U 26042X   26082.41670139  .00108457  00000+0  70650-3 0  9991
2 68090  53.1585 125.9317 0001368  76.5383 318.5486 15.75113229  4241
STARLINK-36324          
1 68091U 26042Y   26082.00002315 -.00122920  00000+0 -80645-3 0  9990
2 68091  53.1580 128.0578 0001429 144.4796  18.6458 15.75320491  4182
STARLINK-36896          
1 68092U 26042Z   26082.41670139  .00099957  00000+0  65244-3 0  9990
2 68092  53.1591 125.8789 0001685  83.6299 337.2276 15.75101175  4252
STARLINK-36251          
1 68093U 26042AA  26082.52253776  .00007928  00000+0  43758-4 0  9991
2 68093  53.1575 125.2319 0001192  84.9661 275.1497 15.80828753  4268
STARLINK-36787          
1 68094U 26042AB  26082.47431934  .00043094  00000+0  28420-3 0  9992
2 68094  53.1586 125.6475 0001068  64.4892 295.6238 15.75211179  4250
